#aV2016  3 31  0  0  0.00000000     288 DD+AD WGS84 FIT  NGA
## 1890 345600.00000000   300.00000000 57478 0.0000000000000
+   31     1  2  3  5  6  7  8  9 10 11 12 13 14 15 16 17 18
+         19 20 21 22 23 24 25 26 27 28 29 30 31 32  0  0  0
+          0  0  0  0  0  0  0  0  0  0  0  0  0  0  0  0  0
+          0  0  0  0  0  0  0  0  0  0  0  0  0  0  0  0  0
+          0  0  0  0  0  0  0  0  0  0  0  0  0  0  0  0  0
++         2  2  2  2  2  2  2  2  2  2  2  2  2  2  2  2  2
++         2  2  2  2  2  2  2  2  2  2  2  2  2  2  0  0  0
++         0  0  0  0  0  0  0  0  0  0  0  0  0  0  0  0  0
++         0  0  0  0  0  0  0  0  0  0  0  0  0  0  0  0  0
++         0  0  0  0  0  0  0  0  0  0  0  0  0  0  0  0  0
%c cc cc ccc ccc cccc cccc cccc cccc ccccc ccccc ccccc ccccc
%c cc cc ccc ccc cccc cccc cccc cccc ccccc ccccc ccccc ccccc
%f  0.0000000  0.000000000  0.00000000000  0.000000000000000
%f  0.0000000  0.000000000  0.00000000000  0.000000000000000
%i    0    0    0    0      0      0      0      0         0
%i    0    0    0    0      0      0      0      0         0
/*      NGA, ST. LOUIS,MO.                                  
/*   EPHEMERIS COMPUTED FROM 2 DAYS OF DATA                 
/*   EPOCHA v2.4 SMOOTHER                                   
/*   G1762 IERS2010 SATAF SATAPC                            
*  2016  3 31 17 10  0.00000000
P  1 -22621.192548 -14152.245980   -353.191028     15.958200                    
V  1   1628.428652  -1972.649495 -31668.160650      0.011231                    
P  2   6938.887222  18818.711868  18038.568857    598.502814                    
V  2 -19962.009209  -9275.321579  17381.283692     -0.005075                    
P  3 -13267.794434 -12533.831861  19296.039459    -42.400752                    
V  3   1821.627112 -24468.871347 -14653.357684     -0.042490                    
P  5   3120.364537  25865.851301  -4662.712972   -132.874024                    
V  5  -3402.220743   5851.094801  30817.256217      0.032427                    
P  6  -8573.369015  12524.197769  21809.976810    168.783496                    
V  6 -23649.350424 -14329.163004  -1070.197685      0.057402                    
P  7 -22511.820625  -2913.342176 -13977.879835    462.508385                    
V  7 -14049.165902 -11084.831037  24315.983180     -0.018984                    
P  8 -10020.446758 -11638.895802 -21615.908709    -29.594968                    
V  8  23906.015409 -13740.324103  -3646.059142     -0.014640                    
P  9 -24190.848892   6258.697858   9004.653656    100.802502                    
V  9   8674.031702  -7974.630197  28770.653679      0.075077                    
P 10  11042.768097 -18618.427744 -15335.152808     13.828849                    
V 10   1746.866849  19556.717652 -22522.736784     -0.098321                    
P 11 -21841.538884 -11937.248554  -9883.048576   -638.946947                    
V 11  12453.969937  -1942.759308 -26627.578411     -0.015391                    
P 12  10455.334181  16764.057944  17737.524847    374.576655                    
V 12  -2643.351843  22485.674864 -19342.380326      0.014484                    
P 13    745.307052  15641.078947 -21599.963230     -7.574721                    
V 13 -25183.922416   9912.254290   6261.247003     -0.027633                    
P 14  20153.588829 -15313.899264   8041.552407     -5.732505                    
V 14  10090.310168  -1749.266079 -29693.697437     -0.021547                    
P 15  14682.103051   8783.911193 -20508.946846   -304.325107                    
V 15 -21364.036282  14504.238996  -8789.353197     -0.017561                    
P 16   -556.235512 -25983.652450  -4424.603924    -28.006219                    
V 16   2619.912657  -5328.500361  32019.055707      0.028603                    
P 17 -20940.432400  15053.971326   6245.135860   -202.661327                    
V 17  -7794.848164   1222.292391 -30885.108527     -0.003949                    
P 18  15186.799873  -6393.686095 -20257.012505    499.611379                    
V 18   1434.351987  27107.704893  -7555.541333      0.040913                    
P 19 -14265.769819  17038.292497  14598.774750   -525.511628                    
V 19 -17864.731991   5973.812900 -23674.534066     -0.001147                    
P 20  13537.470951  15756.493534 -16677.026054    402.952413                    
V 20  -1092.526232  21128.276508  19301.160641      0.024879                    
P 21  21207.998975   -954.182902 -15373.774705   -517.203716                    
V 21  16865.165702  12517.166199  21195.816714     -0.015716                    
P 22  -7515.501155 -23609.878272   9625.708834    371.399675                    
V 22   3502.631560 -12037.197045 -27624.052291     -0.070592                    
P 23 -20362.715024  -2917.964968  17215.580403   -167.259726                    
V 23  17904.588296 -11818.977934  18940.932062     -0.017642                    
P 24  21521.227509  15339.014477  -3609.355362    -14.795175                    
V 24  -5369.848029    321.514511 -30943.659546     -0.005488                    
P 25  14561.125881   3878.588865  21772.906289   -144.431398                    
V 25   -816.556741  27839.752077  -4200.200662     -0.070829                    
P 26   4760.231582 -25327.057304   6326.516214   -313.516996                    
V 26   2631.788976   8082.569922  30412.242913     -0.140799                    
P 27   1262.324004 -16784.518077 -20529.313000     77.507364                    
V 27  23200.581462 -11832.087853  11270.747538      0.038241                    
P 28 -11910.883400  17354.275846 -15541.948606    512.965170                    
V 28    434.336515 -20912.509712 -22818.734397      0.026218                    
P 29  23649.903124  -2560.325517  11778.932510    656.500298                    
V 29 -12584.480715   8269.202770  27140.939255      0.003869                    
P 30 -16388.064300   5934.352053 -20074.671229    112.253024                    
V 30 -20202.551681 -15555.211512  11813.151086      0.036882                    
P 31   6553.836898 -13607.153520  21934.071146    275.896020                    
V 31  23312.059712  14756.289033   2555.128132     -0.017295                    
P 32  18845.497271 -16929.095156   7976.259448      8.519943                    
V 32  10134.482322  -2626.484475 -29530.546746     -0.017237                    
EOF
